H1 CPF 01  gfz 2021 07 25 12  7062 tandemx   
H2 1003001  6202 36605    2021 07 25 12 59 42 2021 07 30 00 00 42   120 1 1  0 0 0
H9
10 0 59423  69102.000000  0   -2146993.357   1553340.124  -6365572.372
10 0 59423  69222.000000  0   -1297328.835   1336873.609  -6638856.642
10 0 59423  69342.000000  0    -429315.817   1082223.818  -6796338.152
10 0 59423  69462.000000  0     441379.425    793623.232  -6835308.166
10 0 59423  69582.000000  0    1299131.968    476159.599  -6755095.737
10 0 59423  69702.000000  0    2128633.340    135688.013  -6557079.448
10 0 59423  69822.000000  0    2915158.517   -221274.090  -6244665.572
10 0 59423  69942.000000  0    3644823.651   -587667.407  -5823236.056
10 0 59423  70062.000000  0    4304828.763   -956025.574  -5300064.111
10 0 59423  70182.000000  0    4883684.253  -1318622.278  -4684201.225
10 0 59423  70302.000000  0    5371417.496  -1667629.193  -3986331.946
10 0 59423  70422.000000  0    5759753.621  -1995280.421  -3218598.337
10 0 59423  70542.000000  0    6042267.010  -2294040.842  -2394395.869
10 0 59423  70662.000000  0    6214498.995  -2556774.643  -1528143.092
10 0 59423  70782.000000  0    6274038.192  -2776909.442   -635029.468
10 0 59423  70902.000000  0    6220561.603  -2948592.271    269254.322
10 0 59423  71022.000000  0    6055834.208  -3066833.119   1168798.272
10 0 59423  71142.000000  0    5783667.115  -3127632.220   2047762.127
10 0 59423  71262.000000  0    5409831.902  -3128087.230   2890663.872
10 0 59423  71382.000000  0    4941936.655  -3066477.764   3682660.362
10 0 59423  71502.000000  0    4389265.708  -2942323.895   4409814.160
10 0 59423  71622.000000  0    3762590.012  -2756420.017   5059341.680
10 0 59423  71742.000000  0    3073948.800  -2510842.265   5619839.569
10 0 59423  71862.000000  0    2336410.239  -2208927.949   6081481.646
10 0 59423  71982.000000  0    1563817.732  -1855229.824   6436186.272
10 0 59423  72102.000000  0     770525.952  -1455445.934   6677752.044
10 0 59423  72222.000000  0     -28868.406  -1016325.971   6801960.094
10 0 59423  72342.000000  0    -819795.384   -545555.887   6806642.553
10 0 59423  72462.000000  0   -1587976.136    -51623.302   6691717.431
10 0 59423  72582.000000  0   -2319679.583    456335.181   6459190.013
10 0 59423  72702.000000  0   -3001967.329    968702.227   6113120.403
10 0 59423  72822.000000  0   -3622923.536   1475560.745   5659557.492
10 0 59423  72942.000000  0   -4171866.648   1966885.052   5106439.794
10 0 59423  73062.000000  0   -4639539.422   2432739.445   4463462.946
10 0 59423  73182.000000  0   -5018272.068   2863480.161   3741913.666
10 0 59423  73302.000000  0   -5302114.623   3249955.754   2954474.185
10 0 59423  73422.000000  0   -5486936.951   3583702.121   2115000.248
10 0 59423  73542.000000  0   -5570493.773   3857128.543   1238275.103
10 0 59423  73662.000000  0   -5552451.502   4063688.145    339742.485
10 0 59423  73782.000000  0   -5434375.413   4198028.453   -564773.011
10 0 59423  73902.000000  0   -5219679.520   4256119.117  -1459353.179
10 0 59423  74022.000000  0   -4913538.712   4235353.398  -2328276.234
10 0 59423  74142.000000  0   -4522764.217   4134618.799  -3156301.321
10 0 59423  74262.000000  0   -4055648.090   3954336.864  -3928940.109
10 0 59423  74382.000000  0   -3521781.039   3696471.663  -4632710.230
10 0 59423  74502.000000  0   -2931848.970   3364507.880  -5255366.127
10 0 59423  74622.000000  0   -2297415.199   2963399.714  -5786103.807
10 0 59423  74742.000000  0   -1630691.086   2499492.591  -6215739.697
10 0 59423  74862.000000  0    -944299.320   1980417.616  -6536858.379
10 0 59423  74982.000000  0    -251036.861   1414963.560  -6743928.473
10 0 59423  75102.000000  0     436359.308    812927.885  -6833387.850
10 0 59423  75222.000000  0    1105439.956    184949.889  -6803699.083
10 0 59423  75342.000000  0    1744264.905   -457673.743  -6655373.492
10 0 59423  75462.000000  0    2341610.669  -1103187.235  -6390961.903
10 0 59423  75582.000000  0    2887163.858  -1739585.135  -6015015.995
10 0 59423  75702.000000  0    3371697.555  -2354829.859  -5534018.251
10 0 59423  75822.000000  0    3787229.640  -2937076.725  -4956282.761
10 0 59423  75942.000000  0    4127158.643  -3474902.481  -4291821.358
10 0 59423  76062.000000  0    4386372.613  -3957529.815  -3552179.891
10 0 59423  76182.000000  0    4561332.264  -4375045.925  -2750247.342
10 0 59423  76302.000000  0    4650125.089  -4718610.350  -1900036.805
10 0 59423  76422.000000  0    4652487.894  -4980646.832  -1016442.535
10 0 59423  76542.000000  0    4569795.582  -5155013.841   -114976.225
10 0 59423  76662.000000  0    4405016.471  -5237147.794    788511.049
10 0 59423  76782.000000  0    4162635.747  -5224176.368   1678115.562
10 0 59423  76902.000000  0    3848546.790  -5114996.876   2538170.605
10 0 59423  77022.000000  0    3469914.465  -4910319.437   3353529.977
10 0 59423  77142.000000  0    3035014.229  -4612673.454   4109841.923
10 0 59423  77262.000000  0    2553050.806  -4226376.460   4793806.032
10 0 59423  77382.000000  0    2033961.644  -3757467.276   5393408.679
10 0 59423  77502.000000  0    1488209.650  -3213605.685   5898132.864
10 0 59423  77622.000000  0     926569.510  -2603940.000   6299138.881
10 0 59423  77742.000000  0     359913.240  -1938947.640   6589412.766
10 0 59423  77862.000000  0    -201000.758  -1230251.405   6763882.139
10 0 59423  77982.000000  0    -745730.861   -490414.369   6819500.269
10 0 59423  78102.000000  0   -1264345.531    267283.999   6755295.886
10 0 59423  78222.000000  0   -1747603.846   1029085.866   6572388.876
10 0 59423  78342.000000  0   -2187119.813   1781004.006   6273971.829
10 0 59423  78462.000000  0   -2575508.599   2509077.829   5865257.800
10 0 59423  78582.000000  0   -2906511.873   3199633.220   5353394.942
10 0 59423  78702.000000  0   -3175101.399   3839541.602   4747348.117
10 0 59423  78822.000000  0   -3377558.486   4416474.020   4057747.716
10 0 59423  78942.000000  0   -3511526.908   4919144.962   3296707.248
10 0 59423  79062.000000  0   -3576038.040   5337540.441   2477611.688
10 0 59423  79182.000000  0   -3571507.350   5663123.906   1614879.874
10 0 59423  79302.000000  0   -3499702.084   5889014.638    723706.773
10 0 59423  79422.000000  0   -3363681.806   6010137.089   -180209.863
10 0 59423  79542.000000  0   -3167711.770   6023334.492  -1080955.588
10 0 59423  79662.000000  0   -2917151.783   5927442.693  -1962690.046
10 0 59423  79782.000000  0   -2618321.155   5723321.549  -2809935.323
10 0 59423  79902.000000  0   -2278346.018   5413845.602  -3607851.277
10 0 59423  80022.000000  0   -1904994.728   5003856.634  -4342497.422
10 0 59423  80142.000000  0   -1506503.412   4500076.395  -5001073.987
10 0 59423  80262.000000  0   -1091397.869   3910986.311  -5572138.016
10 0 59423  80382.000000  0    -668314.258   3246676.252  -6045794.497
10 0 59423  80502.000000  0    -245822.129   2518663.757  -6413858.145
10 0 59423  80622.000000  0     167745.540   1739689.567  -6669982.490
10 0 59423  80742.000000  0     564451.729    923494.670  -6809759.061
10 0 59423  80862.000000  0     936903.648     84580.498  -6830785.561
10 0 59423  80982.000000  0    1278386.952   -762044.192  -6732702.351
10 0 59423  81102.000000  0    1582983.244  -1601125.646  -6517196.357
10 0 59423  81222.000000  0    1845670.308  -2417432.153  -6187975.167
10 0 59423  81342.000000  0    2062404.530  -3196024.113  -5750711.209
10 0 59423  81462.000000  0    2230183.610  -3922525.683  -5212955.543
10 0 59423  81582.000000  0    2347088.483  -4583391.866  -4584017.118
10 0 59423  81702.000000  0    2412303.104  -5166163.058  -3874811.929
10 0 59423  81822.000000  0    2426111.978  -5659706.383  -3097684.139
10 0 59423  81942.000000  0    2389875.181  -6054437.959  -2266198.451
10 0 59423  82062.000000  0    2305981.035  -6342520.315  -1394907.222
10 0 59423  82182.000000  0    2177776.199  -6518029.430   -499095.079
10 0 59423  82302.000000  0    2009476.125  -6577084.138    405495.127
10 0 59423  82422.000000  0    1806055.430  -6517935.636   1302945.058
10 0 59423  82542.000000  0    1573124.133  -6341016.669   2177450.254
10 0 59423  82662.000000  0    1316789.186  -6048943.307   3013608.672
10 0 59423  82782.000000  0    1043507.405  -5646473.588   3796698.906
10 0 59423  82902.000000  0     759933.141  -5140423.536   4512944.475
10 0 59423  83022.000000  0     472764.362  -4539543.974   5149758.543
10 0 59423  83142.000000  0     188590.374  -3854359.671   5695965.581
10 0 59423  83262.000000  0     -86253.427  -3096974.529   6141994.710
10 0 59423  83382.000000  0    -345821.933  -2280848.805   6480041.140
10 0 59423  83502.000000  0    -584685.028  -1420555.393   6704195.481
10 0 59423  83622.000000  0    -798038.087   -531517.641   6810542.018
10 0 59423  83742.000000  0    -981796.841    370268.595   6797223.911
10 0 59423  83862.000000  0   -1132674.936   1268523.013   6664473.464
10 0 59423  83982.000000  0   -1248242.259   2146974.183   6414608.017
10 0 59423  84102.000000  0   -1326963.998   2989653.843   6051992.132
10 0 59423  84222.000000  0   -1368220.163   3781188.143   5582965.890
10 0 59423  84342.000000  0   -1372304.192   4507080.830   5015739.753
10 0 59423  84462.000000  0   -1340401.525   5153984.575   4360257.472
10 0 59423  84582.000000  0   -1274548.191   5709954.513   3628025.799
10 0 59423  84702.000000  0   -1177570.037   6164676.969   2831915.559
10 0 59423  84822.000000  0   -1053005.962   6509672.021   1985936.077
10 0 59423  84942.000000  0    -905011.877   6738461.211   1104984.036
10 0 59423  85062.000000  0    -738250.845   6846695.459    204575.313
10 0 59423  85182.000000  0    -557771.811   6832242.403   -699435.501
10 0 59423  85302.000000  0    -368879.727   6695229.315  -1591144.634
10 0 59423  85422.000000  0    -177001.023   6438037.138  -2454888.818
10 0 59423  85542.000000  0      12451.400   6065249.490  -3275525.735
99
